STARLINK-1680           
1 46558U 20070AC  25144.39235951  .00001528  00000+0  12144-3 0  9990
2 46558  53.0566  20.3251 0001483  94.0849 266.0309 15.06396315256084
STARLINK-1681           
1 46559U 20070AD  25144.01569155  .00037315  00000+0  17958-2 0  9996
2 46559  53.0561   1.7878 0006954 148.8776 211.2631 15.18428139256334
STARLINK-1714           
1 46562U 20070AG  25144.33574497  .00000786  00000+0  71639-4 0  9990
2 46562  53.0552  16.0403 0001402  88.2187 271.8962 15.06395787256166
STARLINK-1730           
1 46563U 20070AH  25144.33936827 -.00000356  00000+0 -50053-5 0  9993
2 46563  53.0566  15.5612 0001434  99.4877 260.6274 15.06398824256171
STARLINK-1733           
1 46564U 20070AJ  25143.93024325  .00001053  00000+0  89602-4 0  9994
2 46564  53.0550  17.4749 0001395  87.7288 272.3861 15.06398537256116
STARLINK-1735           
1 46565U 20070AK  25144.63054786  .00002048  00000+0  15630-3 0  9991
2 46565  53.0574  14.2518 0001301  91.2852 268.8286 15.06409963256214
STARLINK-1740           
1 46566U 20070AL  25144.61582059  .00001216  00000+0  10056-3 0  9992
2 46566  53.0562  14.3200 0001379  87.8025 272.3121 15.06392962256217
STARLINK-1741           
1 46567U 20070AM  25144.37991904  .00000729  00000+0  67862-4 0  9995
2 46567  53.0562  15.3807 0001544  87.1339 272.9826 15.06400776256184
STARLINK-1531           
1 46572U 20070AS  25144.43241849  .00003781  00000+0  27256-3 0  9997
2 46572  53.0557  35.1301 0001524  98.8939 261.2222 15.06402409255901
STARLINK-1660           
1 46574U 20070AU  25144.58335648  .00051551  00000+0  80956-3 0  9990
2 46574  53.0446 358.7041 0011081 132.7745 306.7773 15.53104774  5968
STARLINK-1675           
1 46575U 20070AV  25144.70906172  .00077693  00000+0  16716-2 0  9998
2 46575  53.0521 341.1429 0004165 204.1863 155.8947 15.43968082256692
STARLINK-1677           
1 46576U 20070AW  25144.65405371 -.00002246  00000+0 -13189-3 0  9994
2 46576  53.0570  19.1513 0001562  90.3716 269.7452 15.06416217256157
STARLINK-1683           
1 46578U 20070AY  25144.33227790  .00037777  00000+0  17827-2 0  9995
2 46578  53.0530   0.0649 0007557 140.7369 219.4175 15.19099599256392
STARLINK-1705           
1 46579U 20070AZ  25144.07168379 -.00000348  00000+0 -44772-5 0  9992
2 46579  53.0556  21.7636 0001426  86.8991 273.2161 15.06394037256065
STARLINK-1708           
1 46580U 20070BA  25144.58335648  .00401593  00000+0  15989-2 0  9995
2 46580  53.0348 334.2916 0003869 265.5382 287.6911 15.85045630  6000
STARLINK-1712           
1 46581U 20070BB  25144.34672895  .00019275  00000+0  13100-2 0  9993
2 46581  53.0550  15.5285 0001541  75.7878 284.3282 15.06382043256175
STARLINK-1728           
1 46582U 20070BC  25144.33199352 -.00001106  00000+0 -55393-4 0  9993
2 46582  53.0550  15.5940 0001406  86.1510 273.9640 15.06394840256173
STARLINK-1736           
1 46585U 20070BF  25144.05559894  .00000377  00000+0  44177-4 0  9991
2 46585  53.0554  17.1856 0001540  84.5518 275.5646 15.06399657256123
STARLINK-1746           
1 46588U 20070BJ  25144.05924453 -.00000442  00000+0 -10789-4 0  9998
2 46588  53.0549  16.8179 0001302  95.7779 264.3358 15.06395590256132
GAOFEN-13 01            
1 46610U 20071A   25144.46895571 -.00000354  00000+0  00000+0 0  9999
2 46610   0.5450  85.1456 0016457 126.0126 317.9895  1.00271125 17024
STARLINK-1716           
1 46672U 20073C   25144.28545961  .00000786  00000+0  71688-4 0  9997
2 46672  53.0552 100.7999 0001497  92.3828 267.7332 15.06400177253512
STARLINK-1718           
1 46674U 20073E   25144.17856861  .00000070  00000+0  23626-4 0  9996
2 46674  53.0562 101.2823 0001546  84.9236 275.1929 15.06397493253490
STARLINK-1773           
1 46679U 20073K   25144.19933401  .00141960  00000+0  16515-2 0  9990
2 46679  53.0454  66.5554 0004165 161.9897 198.1264 15.60758311253988
STARLINK-1775           
1 46681U 20073M   25144.21588741  .00000510  00000+0  53123-4 0  9992
2 46681  53.0546 116.1138 0001314  87.3159 272.7980 15.06393980253282
STARLINK-1781           
1 46685U 20073R   25144.24541384  .00001514  00000+0  12054-3 0  9993
2 46685  53.0544 116.2520 0001062  83.2151 276.8959 15.06393933253286
STARLINK-1784           
1 46687U 20073T   25144.12143817 -.00000400  00000+0 -79247-5 0  9995
2 46687  53.0544  81.5387 0001650  95.8925 264.2252 15.06398277253760
STARLINK-1788           
1 46689U 20073V   25144.34128843  .00000175  00000+0  30665-4 0  9990
2 46689  53.0543 116.2072 0001522  82.4417 277.6745 15.06397277254545
STARLINK-1789           
1 46690U 20073W   25144.54439611  .00001415  00000+0  11386-3 0  9998
2 46690  53.0554  89.6412 0001547  89.3359 270.7807 15.06400713253685
STARLINK-1790           
1 46691U 20073X   25144.14539782  .00000945  00000+0  82374-4 0  9998
2 46691  53.0551 101.4286 0001449  91.5503 268.5652 15.06393321253489
STARLINK-1792           
1 46693U 20073Z   25144.48134998  .00083207  00000+0  12033-2 0  9992
2 46693  53.0274  53.7288 0001976 191.1370 168.9596 15.55225829254187
STARLINK-1795           
1 46696U 20073AC  25144.19147141 -.00000183  00000+0  65835-5 0  9991
2 46696  53.0565  81.2267 0001564  94.2013 265.9155 15.06388774253774
STARLINK-1797           
1 46698U 20073AE  25144.56934477 -.00000108  00000+0  11650-4 0  9992
2 46698  53.0556 100.1085 0001596  91.8859 268.2313 15.06398109253541
STARLINK-1799           
1 46699U 20073AF  25144.31863623  .00003896  00000+0  28041-3 0  9997
2 46699  53.0532 100.6539 0001569  86.9361 273.1807 15.06388717253512
STARLINK-1800           
1 46700U 20073AG  25144.32276368 -.00006016  00000+0 -38518-3 0  9994
2 46700  53.0530 115.6346 0001439  87.2650 272.8504 15.06409877253304
STARLINK-1801           
1 46701U 20073AH  25144.28914823 -.00000656  00000+0 -25172-4 0  9992
2 46701  53.0550 100.7842 0001414  90.8685 269.2466 15.06402370253515
STARLINK-1802           
1 46702U 20073AJ  25144.23569786 -.00000029  00000+0  16932-4 0  9999
2 46702  53.0553  81.0268 0001113  73.9690 286.1422 15.06394851253789
STARLINK-1805           
1 46705U 20073AM  25144.19377151 -.00000146  00000+0  91006-5 0  9996
2 46705  53.0543 116.2127 0001435  95.2920 264.8233 15.06393922253282
STARLINK-1807           
1 46706U 20073AN  25144.56558781  .00000224  00000+0  33926-4 0  9990
2 46706  53.0548  99.5454 0001604  87.2896 272.8277 15.06396149253556
STARLINK-1810           
1 46709U 20073AR  25144.30067921  .00000412  00000+0  46574-4 0  9998
2 46709  53.0539 115.8611 0001293  90.8399 269.2738 15.06390924253296
STARLINK-1814           
1 46712U 20073AU  25144.60247058  .00001356  00000+0  10994-3 0  9990
2 46712  53.0547  99.5061 0001393  89.3589 270.7560 15.06397302253557
STARLINK-1815           
1 46713U 20073AV  25144.60149666 -.00000737  00000+0 -30575-4 0  9999
2 46713  53.0552  99.3773 0001457  97.0245 263.0910 15.06395601253552
STARLINK-1816           
1 46714U 20073AW  25144.59139230  .00000607  00000+0  59609-4 0  9997
2 46714  53.0550  99.4301 0001326  93.1701 266.9440 15.06398474253559
STARLINK-1817           
1 46715U 20073AX  25144.58770354 -.00003547  00000+0 -21929-3 0  9996
2 46715  53.0548  99.4477 0001270  92.7602 267.3532 15.06410270254034
STARLINK-1818           
1 46716U 20073AY  25144.91668981  .00262570  00000+0  12672-2 0  9991
2 46716  53.0389  60.5674 0009815 113.3746 165.3211 15.81264052254611
STARLINK-1820           
1 46717U 20073AZ  25144.84848520  .00039664  00000+0  18455-2 0  9994
2 46717  53.0504  92.4532 0007120  57.9307 302.2378 15.19568256254150
STARLINK-1821           
1 46718U 20073BA  25144.31909478 -.00000128  00000+0  10325-4 0  9991
2 46718  53.0548 115.6861 0001430  94.9200 265.1952 15.06394736253300
STARLINK-1822           
1 46719U 20073BB  25144.91668981  .00113104  00000+0  17610-2 0  9999
2 46719  53.0544  71.6173 0003930 145.8983 333.9894 15.53048194254457
STARLINK-1826           
1 46723U 20073BF  25144.83143110  .00000969  00000+0  83906-4 0  9994
2 46723  53.0552  73.3533 0001414  93.7641 266.3510 15.06404406254428
STARLINK-1828           
1 46725U 20073BH  25144.30435566  .00001565  00000+0  12392-3 0  9990
2 46725  53.0541 115.7185 0001254  91.1517 268.9615 15.06392962253301
STARLINK-1830           
1 46727U 20073BK  25144.81669233 -.00000412  00000+0 -87894-5 0  9991
2 46727  53.0561  73.4196 0001359  92.9320 267.1825 15.06397678254421
STARLINK-1848           
1 46740U 20074B   25144.51169049  .00001319  00000+0  10744-3 0  9997
2 46740  53.0537 184.7861 0001107  89.0137 271.0979 15.06395066253015
STARLINK-1892           
1 46743U 20074E   25144.38867023  .00001047  00000+0  89199-4 0  9991
2 46743  53.0540 180.3430 0001133  82.2178 277.8940 15.06395640253071
STARLINK-1894           
1 46744U 20074F   25144.49928093  .00000982  00000+0  84791-4 0  9999
2 46744  53.0538 180.1112 0001258  80.2283 279.8848 15.06400915253089
STARLINK-1905           
1 46746U 20074H   25144.42184118  .00000765  00000+0  70212-4 0  9998
2 46746  53.0536 180.1891 0001123  81.3488 278.7628 15.06397035253074
STARLINK-1911           
1 46749U 20074L   25144.48450058  .00001093  00000+0  92293-4 0  9994
2 46749  53.0536 179.9076 0001106  86.6308 273.4808 15.06395637253087
STARLINK-1922           
1 46753U 20074Q   25144.39235522  .00000852  00000+0  76074-4 0  9997
2 46753  53.0541 180.3272 0001092  86.7672 273.3441 15.06395731253077
STARLINK-1924           
1 46755U 20074S   25144.91668981  .00249959  00000+0  19029-2 0  9994
2 46755  53.0507 162.8313 0012424 354.3982  39.7780 15.70895655253375
STARLINK-1928           
1 46758U 20074V   25144.38635952  .00000750  00000+0  69220-4 0  9994
2 46758  53.0543 185.3498 0001057  91.6108 268.5002 15.06398411253009
STARLINK-1903           
1 46764U 20074AB  25144.32022645  .00037843  00000+0  61237-3 0  9996
2 46764  53.0283 159.4458 0004827  39.1351 321.0006 15.52465048253360
